OBJECT_NAME,OBJECT_ID,EPOCH,MEAN_MOTION,ECCENTRICITY,INCLINATION,RA_OF_ASC_NODE,ARG_OF_PERICENTER,MEAN_ANOMALY,EPHEMERIS_TYPE,CLASSIFICATION_TYPE,NORAD_CAT_ID,ELEMENT_SET_NO,REV_AT_EPOCH,BSTAR,MEAN_MOTION_DOT,MEAN_MOTION_DDOT
STARLINK-5189,2022-136B,2026-07-12T22:08:38.278464,15.08826916,.00013892,53.1607,101.4921,97.0589,263.0561,0,U,54052,999,20631,.4920113E-5,-.21E-5,0
STARLINK-5176,2022-136C,2026-07-13T06:20:04.797024,15.31703739,.00012528,53.1614,137.1953,85.6770,274.4374,0,U,54053,999,20584,.36207532E-4,.759E-5,0
STARLINK-5163,2022-136D,2026-07-13T06:00:02.999808,15.31687338,.00013414,53.1614,138.6689,83.8569,224.1783,0,U,54054,999,580,.13207707E-2,.40828E-3,0
STARLINK-5158,2022-136E,2026-07-13T06:00:02.999808,15.16211568,.00025704,53.1607,140.2346,57.2248,133.9982,0,U,54055,999,580,.34944366E-2,.68674E-3,0
STARLINK-5226,2022-136F,2026-07-12T23:22:46.791552,15.08834556,.00014996,53.1587,141.0323,82.6799,277.4363,0,U,54056,999,20576,.33404164E-4,.244E-5,0
STARLINK-5167,2022-136H,2026-07-13T06:00:02.999808,15.14773644,.00010329,53.1608,140.1104,96.8792,156.2430,0,U,54058,999,569,.41115142E-2,.77713E-3,0
STARLINK-5173,2022-136J,2026-07-13T06:00:02.999808,15.18152376,.00008395,53.1607,140.0319,63.2123,231.9765,0,U,54059,999,580,.37442808E-2,.77921E-3,0
STARLINK-5169,2022-136K,2026-07-13T04:12:55.013472,15.08835250,.00012466,53.1602,110.1985,94.9340,265.1794,0,U,54060,999,20621,.19274189E-4,.19E-6,0
STARLINK-5209,2022-136L,2026-07-13T06:00:02.999808,15.15569227,.00020851,53.1612,104.6616,71.9636,60.1898,0,U,54061,999,560,.3832619E-2,.74038E-3,0
STARLINK-5170,2022-136M,2026-07-13T06:00:02.999808,15.15154501,.00008562,53.1611,140.0761,86.4792,184.5516,0,U,54062,999,574,.39818915E-2,.76052E-3,0
STARLINK-5172,2022-136P,2026-07-13T01:50:17.231712,15.29361945,.0001231,53.1600,93.2260,101.1221,258.9918,0,U,54064,999,20644,.34833154E-4,.65E-5,0
STARLINK-5187,2022-136Q,2026-07-13T06:00:02.999808,15.13345021,.00006744,53.1604,140.0137,72.1606,230.4225,0,U,54065,999,569,.43606015E-2,.79201E-3,0
STARLINK-5151,2022-136R,2026-07-13T05:31:36.593760,15.08015268,.00015158,53.1884,140.6804,82.8671,277.2493,0,U,54066,999,20579,.27559907E-4,.143E-5,0
STARLINK-5174,2022-136S,2026-07-13T06:00:02.999808,15.15414034,.00015289,53.1601,139.8678,45.6661,331.9419,0,U,54067,999,579,.3548521E-2,.68168E-3,0
STARLINK-5222,2022-136T,2026-07-13T06:16:09.340608,15.08846493,.00016936,53.1548,139.9658,84.6719,275.4465,0,U,54068,999,20580,.9066235E-4,.1155E-4,0
STARLINK-5181,2022-136V,2026-07-13T06:00:02.999808,15.12014170,.00010963,53.1599,139.8784,64.9691,306.8021,0,U,54070,999,554,.4335884E-2,.75835E-3,0
STARLINK-5168,2022-136W,2026-07-13T06:00:02.999808,15.13399785,.00011946,53.1596,139.8096,192.2371,213.9908,0,U,54071,999,555,.3738342E-2,.67853E-3,0
STARLINK-5146,2022-136Y,2026-07-12T23:31:23.945664,15.08838118,.00017221,53.1563,136.0780,85.5061,274.6127,0,U,54073,999,20583,.34511061E-4,.261E-5,0
STARLINK-5192,2022-136Z,2026-07-13T05:49:37.693632,15.08835279,.00013556,53.1595,139.8539,92.3627,267.7520,0,U,54074,999,20580,.52815466E-4,.553E-5,0
STARLINK-5212,2022-136AA,2026-07-13T05:57:51.684768,15.31700173,.0001358,53.1609,131.4089,84.1316,275.9840,0,U,54075,999,20592,.92016695E-4,.2491E-4,0
STARLINK-5201,2022-136AB,2026-07-12T20:02:54.116448,15.08838776,.00013689,53.1593,142.2725,84.9069,275.2079,0,U,54076,999,20573,.47601838E-4,.47E-5,0
STARLINK-5171,2022-136AC,2026-07-13T04:32:20.784480,15.08835648,.00007089,53.1613,116.1159,118.3882,241.7181,0,U,54077,999,20613,.12347525E-4,-.91E-6,0
STARLINK-5175,2022-136AE,2026-07-12T23:13:36.714720,15.08833290,.00008775,53.1582,131.7001,101.4711,258.6379,0,U,54079,999,20589,.9868009E-5,-.131E-5,0
STARLINK-5210,2022-136AH,2026-07-12T05:39:04.049856,15.08832455,.000153,53.1605,134.9497,87.0441,273.0726,0,U,54082,999,20578,-.1637E-4,-.549E-5,0
STARLINK-5178,2022-136AJ,2026-07-13T05:13:56.489088,15.08832751,.00015004,53.1591,130.4161,88.1840,271.9324,0,U,54083,999,20593,.58343288E-4,.64E-5,0
STARLINK-5183,2022-136AK,2026-07-13T05:24:32.647104,15.08835461,.00012809,53.1594,130.4620,85.0960,275.0178,0,U,54084,999,20593,.21580208E-4,.55E-6,0
STARLINK-5166,2022-136AL,2026-07-13T05:10:00.683616,15.08841263,.00015574,53.1595,130.3996,89.7382,270.3788,0,U,54085,999,20593,-.3627403E-5,-.346E-5,0
STARLINK-5211,2022-136AM,2026-07-13T05:13:17.940864,15.08825590,.00013046,53.1614,115.4538,92.8124,267.3017,0,U,54086,999,20614,-.86324282E-4,-.1661E-4,0
STARLINK-5184,2022-136AN,2026-07-13T05:50:57.331104,15.08830976,.00014074,53.1597,129.8749,88.4637,271.6516,0,U,54087,999,20594,-.16473524E-4,-.55E-5,0
STARLINK-5153,2022-136AP,2026-07-13T05:19:14.391840,15.08836710,.00014243,53.1591,130.4382,95.8194,264.2959,0,U,54088,999,20593,.69208116E-4,.814E-5,0
STARLINK-5143,2022-136AQ,2026-07-13T04:47:24.333216,15.08834016,.00014988,53.1597,130.3048,89.9131,270.2032,0,U,54089,999,20593,.52041286E-4,.54E-5,0
STARLINK-5177,2022-136AR,2026-07-13T04:52:42.729312,15.08833587,.00014344,53.1596,130.3239,85.0053,275.1102,0,U,54090,999,20593,.54632812E-4,.581E-5,0
STARLINK-5221,2022-136AS,2026-07-13T05:45:39.145824,15.08832614,.00012767,53.1595,129.8480,88.9476,271.1662,0,U,54091,999,20594,-.17805334E-4,-.571E-5,0
STARLINK-5190,2022-136AT,2026-07-13T06:00:02.999808,15.91744313,.00074935,53.1679,268.3948,355.2856,104.0409,0,U,54092,999,602,.29926917E-3,.97213E-3,.14650816E-4
STARLINK-5213,2022-136AU,2026-07-13T04:31:28.113312,15.08813313,.00015769,53.1571,130.2351,61.6285,298.4865,0,U,54093,999,20593,.63988667E-3,.9903E-4,0
STARLINK-5193,2022-136AW,2026-07-13T05:56:15.622656,15.08839101,.00011446,53.1619,129.8892,93.2739,266.8383,0,U,54095,999,20594,-.95568302E-4,-.1809E-4,0
STARLINK-5188,2022-136AX,2026-07-13T04:36:47.826144,15.08831977,.00012944,53.1607,130.2568,92.8712,267.2427,0,U,54096,999,20593,.17394942E-4,-.11E-6,0
STARLINK-5197,2022-136AY,2026-07-13T04:48:05.476032,15.08835185,.00022475,53.1619,105.3607,74.1089,286.0150,0,U,54097,999,20628,-.42927147E-4,-.972E-5,0
STARLINK-5217,2022-136AZ,2026-07-13T05:52:26.945184,15.08832443,.00011586,53.1597,130.5653,130.0283,230.0810,0,U,54098,999,20593,-.21540949E-4,-.631E-5,0
STARLINK-5198,2022-136BA,2026-07-13T05:40:20.347968,15.08826022,.00017838,53.1609,129.8212,86.3178,273.8017,0,U,54099,999,20594,.67458335E-4,.785E-5,0
STARLINK-5185,2022-136BB,2026-07-12T22:04:38.532288,15.08833610,.00009376,53.1598,131.4015,86.6207,273.4891,0,U,54100,999,20589,-.23022186E-4,-.654E-5,0
STARLINK-5204,2022-136BC,2026-07-11T23:20:44.128608,15.29370714,.00011348,53.1602,119.1001,72.1457,287.9667,0,U,54101,999,20598,.14210205E-3,.3749E-4,0
STARLINK-5179,2022-136BD,2026-07-13T05:08:37.618656,15.08841540,.00014353,53.1595,130.3821,87.9189,272.1966,0,U,54102,999,20593,.1484251E-4,-.52E-6,0
STARLINK-5200,2022-136BE,2026-07-13T06:00:02.999808,15.18214065,.0000625,53.1604,109.8199,109.5307,324.7624,0,U,54103,999,559,.38035856E-2,.79316E-3,0
STARLINK-5203,2022-136BF,2026-07-13T02:02:34.807776,15.31701546,.00012613,53.1604,93.2749,89.8092,270.3054,0,U,54104,999,20644,.21879989E-4,.314E-5,0
STARLINK-5290,2022-141A,2026-07-12T07:47:35.395872,15.08833623,.00011289,53.1593,174.3125,83.1950,276.9169,0,U,54157,999,20453,.10363163E-4,-.123E-5,0
STARLINK-5297,2022-141B,2026-07-12T22:31:12.150912,15.08835791,.00012261,53.1595,171.7411,76.7337,283.3791,0,U,54158,999,20462,.32652847E-4,.232E-5,0
STARLINK-5294,2022-141C,2026-07-12T22:25:54.030432,15.08835143,.00013538,53.1587,171.7242,68.8901,291.2235,0,U,54159,999,20462,.29686933E-4,.184E-5,0
STARLINK-5233,2022-141D,2026-07-13T06:00:02.999808,15.21459445,.00019064,53.1613,124.8196,78.9768,126.8659,0,U,54160,999,545,.38929309E-2,.89362E-3,0
STARLINK-5269,2022-141E,2026-07-13T06:00:02.999808,15.22979879,.00023992,53.1605,169.8859,67.8402,62.0258,0,U,54161,999,579,.14027775E-2,.33209E-3,0
STARLINK-5273,2022-141F,2026-07-12T22:15:17.500032,15.08830944,.00013139,53.1592,171.6700,75.6977,284.4160,0,U,54162,999,20462,.13366019E-4,-.75E-6,0
STARLINK-5161,2022-141G,2026-07-12T22:21:45.611424,15.34377934,.00017838,53.1572,158.9296,145.8722,214.2395,0,U,54163,999,20480,.3792074E-5,-.249E-5,0
STARLINK-5278,2022-141H,2026-07-13T06:41:01.809024,15.34386455,.00009986,53.1618,157.5323,91.7748,268.3369,0,U,54164,999,20485,.37054016E-4,.876E-5,0
STARLINK-5279,2022-141J,2026-07-12T22:09:58.671936,15.08838671,.00007895,53.1604,171.6500,93.3026,266.8056,0,U,54165,999,20462,.89823034E-4,.1142E-4,0
STARLINK-5280,2022-141K,2026-07-13T06:56:41.847936,15.35396907,.00012752,53.1620,157.5981,85.0321,275.0828,0,U,54166,999,20485,.19844346E-4,.312E-5,0
STARLINK-5243,2022-141L,2026-07-13T07:15:46.306656,15.08841603,.00015873,53.1591,169.7471,83.2088,276.9084,0,U,54167,999,20468,.27741797E-4,.153E-5,0
STARLINK-5245,2022-141M,2026-07-13T07:01:48.707904,15.35397210,.00013173,53.1618,157.6226,96.1501,263.9652,0,U,54168,999,20485,.9533778E-5,-.48E-6,0
STARLINK-5282,2022-141N,2026-07-13T06:00:02.999808,15.35382718,.00013896,53.1609,157.8076,73.1634,59.0064,0,U,54169,999,574,.61578548E-3,.21147E-3,0
STARLINK-5155,2022-141P,2026-07-13T00:09:36.163584,15.35400070,.00012193,53.1622,158.6839,85.3648,274.7495,0,U,54170,999,20481,.21885164E-4,.383E-5,0
STARLINK-5117,2022-141R,2026-07-13T05:59:09.063744,15.33561312,.00019862,53.1621,157.3573,92.9866,267.1363,0,U,54172,999,20485,.10548461E-4,-.26E-6,0
STARLINK-5242,2022-141S,2026-07-13T06:33:36.983808,15.35391991,.00013964,53.1627,157.4984,98.6572,261.4590,0,U,54173,999,20485,.72563887E-4,.2151E-4,0
STARLINK-5248,2022-141T,2026-07-13T06:00:02.999808,15.16839766,.00007445,53.1587,104.7255,70.1546,198.0533,0,U,54174,999,580,.33786168E-2,.67579E-3,0
STARLINK-5256,2022-141U,2026-07-13T06:36:01.457568,15.33546960,.00015957,53.1610,157.5133,90.9803,269.1382,0,U,54175,999,20485,-.45195418E-4,-.1859E-4,0
STARLINK-5154,2022-141V,2026-07-12T07:38:11.945184,15.34396258,.00012521,53.1597,161.5016,76.5955,283.5187,0,U,54176,999,20471,.96821778E-4,.2896E-4,0
